0 THORAD AGENA D DEB
1 04851U 70025EF  13282.15704887  .00013199  00000-0  40324-2 0   177
2 04851 099.8739 243.0863 0012270 054.0102 073.2529 14.41954088202450
0 THORAD AGENA D DEB
1 04851U 70025EF  13283.47930506  .00012024  00000-0  36735-2 0   203
2 04851 099.8737 244.6142 0012374 050.9216 096.4778 14.41982758202640
0 THORAD AGENA D DEB
1 04851U 70025EF  13283.79788744  .00012505  00000-0  38123-2 0   198
2 04851 099.8744 244.9805 0011898 048.1488 312.1198 14.41974775202696
0 THORAD AGENA D DEB
1 04851U 70025EF  13286.11253924  .00010172  00000-0  31083-2 0   224
2 04851 099.8729 247.6572 0012452 045.1290 084.3852 14.42028064203020
0 THORAD AGENA D DEB
1 04851U 70025EF  13287.15295894  .00010021  00000-0  30614-2 0   234
2 04851 099.8728 248.8595 0012439 042.7211 084.9710 14.42044700203178
0 THORAD AGENA D DEB
1 04851U 70025EF  13288.40794439  .00015581  00000-0  47432-2 0   245
2 04851 099.8729 250.3094 0012446 039.9856 119.2559 14.42079027203355
0 THORAD AGENA D DEB
1 04851U 70025EF  13289.84785696  .00015447  00000-0  46996-2 0   255
2 04851 099.8731 251.9731 0012445 036.7789 033.7010 14.42111057203567
0 THORAD AGENA D DEB
1 04851U 70025EF  13290.88531206  .00012505  00000-0  38075-2 0   269
2 04851 099.8735 253.1719 0012457 034.4287 019.1718 14.42137332203716
0 THORAD AGENA D DEB
1 04851U 70025EF  13292.14847345  .00011859  00000-0  36100-2 0   273
2 04851 099.8739 254.6315 0012440 031.6676 096.3194 14.42165554203892
0 THORAD AGENA D DEB
1 04851U 70025EF  13293.40230838  .00013662  00000-0  41525-2 0   288
2 04851 099.8742 256.0804 0012370 028.7559 125.3545 14.42195801204076
0 THORAD AGENA D DEB
1 04851U 70025EF  13294.71451567  .00016431  00000-0  49857-2 0   291
2 04851 099.8743 257.5970 0012372 026.0561 097.2165 14.42222837204269
0 THORAD AGENA D DEB
1 04851U 70025EF  13295.88046539  .00015948  00000-0  48371-2 0   303
2 04851 099.8743 258.9447 0012339 023.4296 030.1762 14.42252561204437
